H1 CPF 01  gfz 2022 12 16 01  8501 tandemx   
H2 1003001  6202 36605    2022 12 16 00 59 42 2022 12 21 00 00 42   120 1 1  0 0 0
H9
10 0 59929  36702.000000  0   -3199178.362   6098932.694   -198368.183
10 0 59929  36822.000000  0   -3024514.963   6148893.615    705616.322
10 0 59929  36942.000000  0   -2797082.179   6087851.047   1597176.484
10 0 59929  37062.000000  0   -2522785.152   5915973.871   2460609.127
10 0 59929  37182.000000  0   -2208337.074   5635499.377   3280707.756
10 0 59929  37302.000000  0   -1861102.742   5250703.023   4043036.504
10 0 59929  37422.000000  0   -1488931.443   4767828.084   4734188.429
10 0 59929  37542.000000  0   -1099982.421   4194976.769   5342023.166
10 0 59929  37662.000000  0    -702547.400   3541965.359   5855878.527
10 0 59929  37782.000000  0    -304876.136   2820147.584   6266753.619
10 0 59929  37902.000000  0      84993.148   2042210.096   6567460.449
10 0 59929  38022.000000  0     459394.430   1221945.494   6752743.937
10 0 59929  38142.000000  0     811183.415    374004.660   6819368.168
10 0 59929  38262.000000  0    1133872.536   -486364.527   6766168.615
10 0 59929  38382.000000  0    1421749.854  -1343590.630   6594072.455
10 0 59929  38502.000000  0    1669980.300  -2182060.036   6306083.561
10 0 59929  38622.000000  0    1874687.364  -2986401.604   5907234.081
10 0 59929  38742.000000  0    2033014.130  -3741770.648   5404501.490
10 0 59929  38862.000000  0    2143162.321  -4434126.221   4806691.492
10 0 59929  38982.000000  0    2204409.256  -5050496.544   4124289.627
10 0 59929  39102.000000  0    2217103.467  -5579230.328   3369282.141
10 0 59929  39222.000000  0    2182635.671  -6010226.129   2554946.248
10 0 59929  39342.000000  0    2103387.000  -6335133.599   1695615.067
10 0 59929  39462.000000  0    1982657.276  -6547521.762    806421.842
10 0 59929  39582.000000  0    1824572.871  -6643012.291    -96972.063
10 0 59929  39702.000000  0    1633977.313  -6619373.802   -998661.552
10 0 59929  39822.000000  0    1416305.394  -6476570.087  -1882789.452
10 0 59929  39942.000000  0    1177445.232  -6216763.154  -2733832.674
10 0 59929  40062.000000  0     923593.439  -5844272.123  -3536881.027
10 0 59929  40182.000000  0     661107.969  -5365489.731  -4277900.221
10 0 59929  40302.000000  0     396359.481  -4788760.186  -4943975.777
10 0 59929  40422.000000  0     135586.268  -4124221.522  -5523532.437
10 0 59929  40542.000000  0    -115243.940  -3383616.899  -6006527.177
10 0 59929  40662.000000  0    -350562.545  -2580078.963  -6384612.525
10 0 59929  40782.000000  0    -565316.563  -1727892.641  -6651269.267
10 0 59929  40902.000000  0    -755071.217   -842241.018  -6801907.854
10 0 59929  41022.000000  0    -916096.827     61062.159  -6833939.486
10 0 59929  41142.000000  0   -1045438.961    965849.372  -6746814.525
10 0 59929  41262.000000  0   -1140971.176   1855880.913  -6542030.614
10 0 59929  41382.000000  0   -1201429.340   2715128.787  -6223109.546
10 0 59929  41502.000000  0   -1226427.284   3528059.722  -5795544.914
10 0 59929  41622.000000  0   -1216453.796   4279914.032  -5266717.115
10 0 59929  41742.000000  0   -1172850.326   4956974.597  -4645777.620
10 0 59929  41862.000000  0   -1097770.406   5546822.848  -3943501.665
10 0 59929  41982.000000  0    -994120.590   6038574.770  -3172110.052
10 0 59929  42102.000000  0    -865483.926   6423091.844  -2345063.639
10 0 59929  42222.000000  0    -716027.388   6693163.491  -1476832.366
10 0 59929  42342.000000  0    -550395.592   6843654.000   -582641.781
10 0 59929  42462.000000  0    -373592.373   6871611.247    321797.015
10 0 59929  42582.000000  0    -190853.283   6776333.291   1220570.469
10 0 59929  42702.000000  0      -7513.079   6559388.571   2097852.814
10 0 59929  42822.000000  0     171128.293   6224588.130   2938193.801
10 0 59929  42942.000000  0     339938.194   5777914.078   3726797.220
10 0 59929  43062.000000  0     494079.518   5227407.683   4449786.258
10 0 59929  43182.000000  0     629130.731   4583015.695   5094455.291
10 0 59929  43302.000000  0     741194.469   3856395.410   5649490.523
10 0 59929  43422.000000  0     826993.958   3060696.925   6105164.087
10 0 59929  43542.000000  0     883953.361   2210317.128   6453500.463
10 0 59929  43662.000000  0     910260.725   1320633.606   6688410.101
10 0 59929  43782.000000  0     904913.304    407722.851   6805789.890
10 0 59929  43902.000000  0     867744.132   -511930.194   6803589.556
10 0 59929  44022.000000  0     799429.229  -1421728.910   6681846.649
10 0 59929  44142.000000  0     701475.252  -2305264.554   6442686.307
10 0 59929  44262.000000  0     576187.799  -3146612.758   6090287.165
10 0 59929  44382.000000  0     426620.603  -3930622.835   5630810.808
10 0 59929  44502.000000  0     256507.656  -4643191.692   5072298.449
10 0 59929  44622.000000  0      70179.415  -5271521.882   4424537.774
10 0 59929  44742.000000  0    -127536.684  -5804361.072   3698897.927
10 0 59929  44862.000000  0    -331430.097  -6232214.074   2908132.326
10 0 59929  44982.000000  0    -536031.678  -6547522.461   2066154.210
10 0 59929  45102.000000  0    -735745.695  -6744806.240   1187789.115
10 0 59929  45222.000000  0    -924987.131  -6820768.277    288508.870
10 0 59929  45342.000000  0   -1098320.820  -6774353.334   -615850.756
10 0 59929  45462.000000  0   -1250597.087  -6606760.217  -1509378.320
10 0 59929  45582.000000  0   -1377081.217  -6321409.008  -2376374.623
10 0 59929  45702.000000  0   -1473574.249  -5923864.970  -3201634.993
10 0 59929  45822.000000  0   -1536521.836  -5421720.201  -3970720.504
10 0 59929  45942.000000  0   -1563108.119  -4824436.116  -4670211.212
10 0 59929  46062.000000  0   -1551332.550  -4143152.882  -5287935.998
10 0 59929  46182.000000  0   -1500068.642  -3390471.656  -5813176.865
10 0 59929  46302.000000  0   -1409103.363  -2580214.068  -6236845.583
10 0 59929  46422.000000  0   -1279156.636  -1727163.428  -6551630.029
10 0 59929  46542.000000  0   -1111881.227   -846794.106  -6752108.519
10 0 59929  46662.000000  0    -909843.563     45006.260  -6834833.325
10 0 59929  46782.000000  0    -676484.676    932217.867  -6798382.767
10 0 59929  46902.000000  0    -416062.341   1798968.813  -6643382.592
10 0 59929  47022.000000  0    -133576.268   2629811.425  -6372496.500
10 0 59929  47142.000000  0     165324.105   3409992.210  -5990387.179
10 0 59929  47262.000000  0     474448.907   4125712.101  -5503644.628
10 0 59929  47382.000000  0     787190.657   4764370.502  -4920682.698
10 0 59929  47502.000000  0    1096659.528   5314791.999  -4251605.789
10 0 59929  47622.000000  0    1395829.233   5767430.467  -3508043.822
10 0 59929  47742.000000  0    1677690.107   6114544.873  -2702958.252
10 0 59929  47862.000000  0    1935406.231   6350343.975  -1850421.533
10 0 59929  47982.000000  0    2162473.259   6471095.397   -965372.088
10 0 59929  48102.000000  0    2352872.752   6475194.421    -63349.178
10 0 59929  48222.000000  0    2501218.646   6363190.244    839785.925
10 0 59929  48342.000000  0    2602892.199   6137769.140   1728136.192
10 0 59929  48462.000000  0    2654161.928   5803694.967   2586056.811
10 0 59929  48582.000000  0    2652285.744   5367708.477   3398438.643
10 0 59929  48702.000000  0    2595592.786   4838387.508   4150981.400
10 0 59929  48822.000000  0    2483542.041   4225971.921   4830451.592
10 0 59929  48942.000000  0    2316754.766   3542154.196   5424917.313
10 0 59929  49062.000000  0    2097023.442   2799847.704   5923953.393
10 0 59929  49182.000000  0    1827297.680   2012937.261   6318820.102
10 0 59929  49302.000000  0    1511644.928   1196013.889   6602611.768
10 0 59929  49422.000000  0    1155187.793    364100.355   6770370.562
10 0 59929  49542.000000  0     764020.092   -467624.668   6819166.903
10 0 59929  49662.000000  0     345102.460  -1284102.810   6748149.195
10 0 59929  49782.000000  0     -93861.786  -2070669.002   6558557.917
10 0 59929  49902.000000  0    -544568.424  -2813315.019   6253704.990
10 0 59929  50022.000000  0    -998268.293  -3498939.985   5838917.732
10 0 59929  50142.000000  0   -1445934.117  -4115582.102   5321450.190
10 0 59929  50262.000000  0   -1878438.579  -4652631.247   4710364.750
10 0 59929  50382.000000  0   -2286740.947  -5101019.454   4016380.794
10 0 59929  50502.000000  0   -2662077.067  -5453383.587   3251690.085
10 0 59929  50622.000000  0   -2996147.149  -5704193.739   2429742.113
10 0 59929  50742.000000  0   -3281297.487  -5849845.760   1565005.751
10 0 59929  50862.000000  0   -3510692.381  -5888716.615    672710.193
10 0 59929  50982.000000  0   -3678471.712  -5821180.016   -231430.062
10 0 59929  51102.000000  0   -3779890.100  -5649582.029  -1131500.386
10 0 59929  51222.000000  0   -3811433.785  -5378176.255  -2011675.581
10 0 59929  51342.000000  0   -3770912.182  -5013020.168  -2856506.345
10 0 59929  51462.000000  0   -3657521.727  -4561835.933  -3651196.145
10 0 59929  51582.000000  0   -3471880.551  -4033840.384  -4381862.021
10 0 59929  51702.000000  0   -3216034.522  -3439549.695  -5035774.716
10 0 59929  51822.000000  0   -2893435.015  -2790563.208  -5601574.732
10 0 59929  51942.000000  0   -2508889.598  -2099331.881  -6069460.648
10 0 59929  52062.000000  0   -2068486.818  -1378916.855  -6431348.853
10 0 59929  52182.000000  0   -1579496.113   -642741.962  -6681001.890
10 0 59929  52302.000000  0   -1050246.504     95654.003  -6814123.939
10 0 59929  52422.000000  0    -489986.589    822860.530  -6828425.860
10 0 59929  52542.000000  0      91274.003   1525832.619  -6723660.418
10 0 59929  52662.000000  0     682937.863   2192118.242  -6501626.314
10 0 59929  52782.000000  0    1274008.524   2810074.746  -6166142.967
10 0 59929  52902.000000  0    1853290.819   3369070.355  -5722991.453
10 0 59929  53022.000000  0    2409598.935   3859667.174  -5179824.328
10 0 59929  53142.000000  0    2931970.054   4273783.086  -4546045.078
99
